     2              NAVIGATION DATA                         RINEX VERSION / TYPE
CCRINEXN V1.6.0 UX  CDDIS               18-MAY-16 15:33     PGM / RUN BY / DATE 
IGS BROADCAST EPHEMERIS FILE                                COMMENT             
    0.1118D-07  0.2235D-07 -0.5960D-07 -0.1192D-06          ION ALPHA           
    0.9830D+05  0.1311D+06 -0.1311D+06 -0.5898D+06          ION BETA            
   -0.931322574615D-09-0.355271367880D-14   319488     1897 DELTA-UTC: A0,A1,T,W
    17                                                      LEAP SECONDS        
                                                            END OF HEADER       
 1 16  5 17  0  0  0.0 0.206073746085D-04 0.125055521494D-11 0.000000000000D+00
    0.190000000000D+02-0.284062500000D+02 0.491199031840D-08 0.165902255501D+01
   -0.134110450745D-05 0.544077646919D-02 0.539422035217D-05 0.515364210129D+04
    0.172800000000D+06-0.782310962677D-07-0.203349517254D+01 0.184401869774D-06
    0.964035653280D+00 0.278562500000D+03 0.456327958931D+00-0.833534720067D-08
   -0.188579283655D-09 0.100000000000D+01 0.189700000000D+04 0.000000000000D+00
    0.200000000000D+01 0.000000000000D+00 0.512227416039D-08 0.190000000000D+02
    0.165600000000D+06 0.400000000000D+01 0.000000000000D+00 0.000000000000D+00
 2 16  5 17  0  0  0.0 0.591418240219D-03-0.227373675443D-11 0.000000000000D+00
    0.660000000000D+02-0.282812500000D+02 0.527200531447D-08 0.201554781413D+01
   -0.187009572983D-05 0.156636637403D-01 0.466033816338D-05 0.515377184105D+04
    0.172800000000D+06-0.137835741043D-06-0.207880358580D+01-0.322237610817D-06
    0.942827489967D+00 0.282812500000D+03-0.211872730630D+01-0.840392148563D-08
   -0.151434879299D-09 0.100000000000D+01 0.189700000000D+04 0.000000000000D+00
    0.200000000000D+01 0.000000000000D+00-0.200234353542D-07 0.660000000000D+02
    0.169422000000D+06 0.400000000000D+01 0.000000000000D+00 0.000000000000D+00
 3 16  5 17  0  0  0.0-0.583864748478D-04-0.375166564481D-11 0.000000000000D+00
    0.850000000000D+02-0.151250000000D+02 0.439196865741D-08 0.298278018040D+01
   -0.827014446259D-06 0.235673971474D-03 0.107213854790D-04 0.515371048927D+04
    0.172800000000D+06 0.167638063431D-07-0.991741901208D+00 0.931322574616D-08
    0.959142455630D+00 0.168312500000D+03-0.199517191076D+01-0.793675916930D-08
   -0.370729728095D-09 0.100000000000D+01 0.189700000000D+04 0.000000000000D+00
    0.200000000000D+01 0.000000000000D+00 0.186264514923D-08 0.850000000000D+02
    0.170226000000D+06 0.400000000000D+01 0.000000000000D+00 0.000000000000D+00
 4 16  5 17  0  0  0.0-0.256354454905D-03-0.568434188608D-12 0.000000000000D+00
    0.130000000000D+02-0.397812500000D+02 0.519200193949D-08-0.144611422540D+01
   -0.202283263207D-05 0.849194976035D-02 0.891089439392D-05 0.515364393425D+04
    0.172800000000D+06 0.178813934326D-06 0.217267936226D+01 0.223517417908D-07
    0.983274724471D+00 0.215031250000D+03 0.884698356701D+00-0.771460673121D-08
   -0.178578870441D-10 0.100000000000D+01 0.189700000000D+04 0.000000000000D+00
    0.200000000000D+01 0.100000000000D+01-0.195577740669D-07 0.130000000000D+02
    0.172800000000D+06 0.000000000000D+00 0.000000000000D+00 0.000000000000D+00
 5 16  5 17  0  0  0.0-0.120301265269D-03 0.306954461848D-11 0.000000000000D+00
    0.330000000000D+02-0.289062500000D+02 0.462697835601D-08-0.174734230025D+01
   -0.145658850670D-05 0.460534472950D-02 0.104717910290D-04 0.515379530907D+04
    0.172800000000D+06-0.298023223877D-07-0.100349785823D+01-0.100582838059D-06
    0.946210338807D+00 0.170843750000D+03 0.452921599534D+00-0.797283217224D-08
   -0.327870813832D-09 0.100000000000D+01 0.189700000000D+04 0.000000000000D+00
    0.200000000000D+01 0.000000000000D+00-0.107102096081D-07 0.330000000000D+02
    0.172800000000D+06 0.000000000000D+00 0.000000000000D+00 0.000000000000D+00
 6 16  5 17  0  0  0.0 0.191232189536D-03 0.545696821064D-11 0.000000000000D+00
    0.990000000000D+02-0.300625000000D+02 0.487413159857D-08 0.196552101314D+01
   -0.159442424774D-05 0.440788222477D-03 0.474601984024D-05 0.515368540192D+04
    0.172800000000D+06-0.223517417908D-07-0.204193013582D+01-0.149011611938D-07
    0.963872199980D+00 0.285375000000D+03-0.140920394060D+01-0.828784522202D-08
   -0.228580949885D-09 0.100000000000D+01 0.189700000000D+04 0.000000000000D+00
    0.280000000000D+01 0.000000000000D+00 0.419095158577D-08 0.990000000000D+02
    0.165618000000D+06 0.400000000000D+01 0.000000000000D+00 0.000000000000D+00
 8 16  5 17  0  0  0.0-0.353949144483D-04-0.147792889038D-11 0.000000000000D+00
    0.450000000000D+02 0.312500000000D+02 0.463340728573D-08-0.161349002562D+01
    0.164844095707D-05 0.177057553083D-02 0.816211104393D-05 0.515369169617D+04
    0.172800000000D+06-0.298023223877D-07-0.309363506831D+01 0.428408384323D-07
    0.963446996989D+00 0.226843750000D+03-0.112221305764D+01-0.806855037322D-08
    0.408588447920D-09 0.100000000000D+01 0.189700000000D+04 0.000000000000D+00
    0.200000000000D+01 0.000000000000D+00 0.465661287308D-08 0.450000000000D+02
    0.167220000000D+06 0.400000000000D+01 0.000000000000D+00 0.000000000000D+00
 9 16  5 17  0  0  0.0 0.130440574139D-03 0.738964445190D-11 0.000000000000D+00
    0.380000000000D+02 0.815000000000D+02 0.454090343257D-08-0.280718673777D+01
    0.419281423092D-05 0.582913868129D-03 0.818632543087D-05 0.515358366203D+04
    0.172800000000D+06 0.689178705216D-07 0.475122671681D-01-0.651925802231D-07
    0.955541185806D+00 0.220468750000D+03 0.221505063686D+01-0.809712299196D-08
    0.203579908492D-09 0.100000000000D+01 0.189700000000D+04 0.000000000000D+00
    0.200000000000D+01 0.000000000000D+00 0.139698386192D-08 0.380000000000D+02
    0.172770000000D+06 0.400000000000D+01 0.000000000000D+00 0.000000000000D+00
10 16  5 17  0  0  0.0-0.239913351834D-04-0.898126018001D-11 0.000000000000D+00
    0.390000000000D+02-0.224687500000D+02 0.436803926362D-08-0.693019363221D+00
   -0.140257179737D-05 0.148290791549D-02 0.100992619991D-04 0.515368591881D+04
    0.172800000000D+06 0.726431608200D-07-0.995759230786D+00 0.223517417908D-07
    0.959382640446D+00 0.186562500000D+03-0.271771867644D+01-0.791640086817D-08
   -0.421446127996D-09 0.100000000000D+01 0.189700000000D+04 0.000000000000D+00
    0.200000000000D+01 0.000000000000D+00 0.232830643654D-08 0.390000000000D+02
    0.172800000000D+06 0.000000000000D+00 0.000000000000D+00 0.000000000000D+00
13 16  5 17  0  0  0.0-0.183116644621D-04-0.261479726760D-11 0.000000000000D+00
    0.300000000000D+02 0.768750000000D+02 0.414838708269D-08 0.185848939434D+01
    0.403635203838D-05 0.440271955449D-02 0.735558569431D-05 0.515368070030D+04
    0.172800000000D+06 0.111758708954D-06 0.168011506879D+00 0.465661287308D-07
    0.971935067122D+00 0.242718750000D+03 0.199908971071D+01-0.788782855972D-08
    0.296440919383D-09 0.100000000000D+01 0.189700000000D+04 0.000000000000D+00
    0.200000000000D+01 0.000000000000D+00-0.111758708954D-07 0.300000000000D+02
    0.165900000000D+06 0.400000000000D+01 0.000000000000D+00 0.000000000000D+00
14 16  5 17  0  0  0.0-0.142171047628D-04-0.204636307899D-11 0.000000000000D+00
    0.560000000000D+02 0.769062500000D+02 0.422660462648D-08-0.269827599924D+01
    0.401586294174D-05 0.861064146738D-02 0.734999775886D-05 0.515401439285D+04
    0.172800000000D+06 0.186264514923D-07 0.131052641497D+00-0.428408384323D-07
    0.964430538757D+00 0.240187500000D+03-0.196459639918D+01-0.780068207258D-08
    0.276797244002D-09 0.100000000000D+01 0.189700000000D+04 0.000000000000D+00
    0.200000000000D+01 0.000000000000D+00-0.931322574616D-08 0.560000000000D+02
    0.172752000000D+06 0.400000000000D+01 0.000000000000D+00 0.000000000000D+00
15 16  5 17  0  0  0.0-0.311193522066D-03-0.170530256582D-11 0.000000000000D+00
    0.710000000000D+02 0.763437500000D+02 0.500770847012D-08 0.293497552419D+01
    0.393204391003D-05 0.812498084269D-02 0.841356813908D-05 0.515359327316D+04
    0.172800000000D+06-0.391155481338D-07-0.476074504700D-02-0.931322574615D-07
    0.931263976894D+00 0.202000000000D+03 0.481760491304D+00-0.821534218432D-08
    0.238581376877D-09 0.100000000000D+01 0.189700000000D+04 0.000000000000D+00
    0.200000000000D+01 0.000000000000D+00-0.107102096081D-07 0.710000000000D+02
    0.172800000000D+06 0.000000000000D+00 0.000000000000D+00 0.000000000000D+00
16 16  5 17  0  0  0.0-0.171293504536D-04 0.261479726760D-11 0.000000000000D+00
    0.860000000000D+02-0.387500000000D+02 0.376122821777D-08-0.164959825387D+01
   -0.234507024288D-05 0.876382284332D-02 0.921450555325D-05 0.515376026535D+04
    0.172800000000D+06 0.707805156708D-07 0.222066464204D+01-0.968575477600D-07
    0.990807342326D+00 0.213156250000D+03 0.380478888107D+00-0.762781748875D-08
    0.767889155040D-10 0.100000000000D+01 0.189700000000D+04 0.000000000000D+00
    0.200000000000D+01 0.000000000000D+00-0.107102096081D-07 0.860000000000D+02
    0.172800000000D+06 0.000000000000D+00 0.000000000000D+00 0.000000000000D+00
17 16  5 17  0  0  0.0-0.203729141504D-03-0.113686837722D-12 0.000000000000D+00
    0.770000000000D+02 0.292812500000D+02 0.434160941689D-08-0.253056687021D+01
    0.160560011864D-05 0.109620401636D-01 0.808387994766D-05 0.515368968582D+04
    0.172800000000D+06 0.234693288803D-06-0.304120843653D+01 0.167638063431D-07
    0.976583688276D+00 0.229281250000D+03-0.192837078930D+01-0.780425364992D-08
    0.504663878419D-09 0.100000000000D+01 0.189700000000D+04 0.000000000000D+00
    0.200000000000D+01 0.000000000000D+00-0.107102096081D-07 0.770000000000D+02
    0.165618000000D+06 0.400000000000D+01 0.000000000000D+00 0.000000000000D+00
